TRITON-1                
1 39427U 13066M   26186.66388550  .00003985  00000+0  47740-3 0  9994
2 39427  97.8227  96.0495 0089838 173.0799 187.1678 14.81775708676822
CUBEBUG-2 (LO-74)       
1 39440U 13066AA  26186.28247977  .00007070  00000+0  64944-3 0  9998
2 39440  97.8914 135.3391 0056356 329.1937  30.5979 14.93923546679690
NEE-02 KRYSAOR          
1 39441U 13066AB  26186.31446080  .00003858  00000+0  42310-3 0  9992
2 39441  97.8891 125.4006 0066343  11.7209 348.5533 14.86709949678891
UWE-3                   
1 39446U 13066AG  26186.32858405  .00004991  00000+0  42750-3 0  9993
2 39446  97.8704 142.5275 0047386 258.9822 100.6067 14.97160389680296
COSMOS 2488 (RODNIK-S 7)
1 39483U 13076A   26186.63235097 -.00000005  00000+0 -10590-3 0  9996
2 39483  82.4848 157.2034 0020809  57.3358 302.9726 12.42905881568182
COSMOS 2489 (RODNIK-S 8)
1 39484U 13076B   26186.60794168 -.00000076  00000+0 -61835-3 0  9999
2 39484  82.4884 158.6035 0022636  57.1757 303.1499 12.42879313568236
COSMOS 2490 (RODNIK-S 9)
1 39485U 13076C   26186.66035417  .00000065  00000+0  39589-3 0  9998
2 39485  82.4832 156.6303 0022902  71.8909 288.4663 12.42878866568177
KAZEOSAT 1              
1 39731U 14024A   26186.61678925  .00000440  00000+0  14698-3 0  9999
2 39731  98.3196 258.6060 0001317  80.7374 279.3965 14.42035594641211
COSMOS 2496 (RODNIK-S *)
1 39761U 14028A   26186.61784742  .00000125  00000+0  83358-3 0  9990
2 39761  82.4458  97.1886 0021186  40.8947 319.3717 12.42879529549804
COSMOS 2497 (RODNIK-S *)
1 39762U 14028B   26186.67338978  .00000168  00000+0  11380-2 0  9995
2 39762  82.4506  98.8507 0021650  35.9361 324.3170 12.42895448549816
COSMOS 2498 (RODNIK-S *)
1 39763U 14028C   26186.56922299  .00000166  00000+0  11239-2 0  9990
2 39763  82.4466  97.3951 0022390  35.7256 324.5317 12.42981179549836
HODOYOSHI-4             
1 40011U 14033B   26186.65933975  .00001894  00000+0  21033-3 0  9990
2 40011  97.5454  10.5901 0022173 243.0017 116.8936 14.88172351651556
UNISAT-6                
1 40012U 14033C   26186.35327025  .00003655  00000+0  39361-3 0  9991
2 40012  97.7903 338.7479 0045008  10.4150 349.7988 14.88338565648864
DEIMOS-2                
1 40013U 14033D   26186.60464869  .00003904  00000+0  37338-3 0  9997
2 40013  97.5801  60.4440 0001110  85.6235 274.5112 14.93783335640479
BUGSAT-1 (TITA)         
1 40014U 14033E   26186.58737220  .00013728  00000+0  71399-3 0  9999
2 40014  98.0431 280.2152 0029020 117.0166 243.4033 15.15818189658624
SAUDISAT 4              
1 40016U 14033G   26186.31103891  .00000819  00000+0  11448-3 0  9999
2 40016  97.7607 331.8210 0045108  16.2456 344.0190 14.79568835648756
APRIZESAT 9             
1 40018U 14033J   26186.32990274  .00001033  00000+0  15837-3 0  9996
2 40018  97.9084 319.0872 0067012 141.0925 219.5135 14.74243582646237
BRITE-CA1 (TORONTO)     
1 40020U 14033L   26186.31477191  .00001360  00000+0  21142-3 0  9995
2 40020  97.9762 314.9109 0077744 218.0903 141.4794 14.72710063644888
DUCHIFAT-1              
1 40021U 14033M   26185.71700957  .00213562  00000+0  18351-2 0  9994
2 40021  98.0425 247.3916 0000551 273.4953  86.6243 15.68680703658498
