OBJECT_NAME,OBJECT_ID,EPOCH,MEAN_MOTION,ECCENTRICITY,INCLINATION,RA_OF_ASC_NODE,ARG_OF_PERICENTER,MEAN_ANOMALY,EPHEMERIS_TYPE,CLASSIFICATION_TYPE,NORAD_CAT_ID,ELEMENT_SET_NO,REV_AT_EPOCH,BSTAR,MEAN_MOTION_DOT,MEAN_MOTION_DDOT
TRITON-1,2013-066M,2026-07-05T15:55:59.707200,14.81775708,.00898382,97.8227,96.0495,173.0799,187.1678,0,U,39427,999,67682,.47739554E-3,.3985E-4,0
CUBEBUG-2 (LO-74),2013-066AA,2026-07-05T06:46:46.252128,14.93923546,.0056357,97.8914,135.3391,329.1937,30.5979,0,U,39440,999,67969,.64944E-3,.707E-4,0
NEE-02 KRYSAOR,2013-066AB,2026-07-05T07:32:49.413120,14.86709949,.0066343,97.8891,125.4006,11.7209,348.5533,0,U,39441,999,67889,.4231E-3,.3858E-4,0
UWE-3,2013-066AG,2026-07-05T07:53:09.661056,14.97160389,.0047387,97.8704,142.5275,258.9822,100.6067,0,U,39446,999,68029,.4275E-3,.4991E-4,0
COSMOS 2488 (RODNIK-S 7),2013-076A,2026-07-05T15:10:35.123808,12.42905881,.00208098,82.4848,157.2034,57.3358,302.9726,0,U,39483,999,56818,-.10590127E-3,-.5E-7,0
COSMOS 2489 (RODNIK-S 8),2013-076B,2026-07-05T14:35:26.161152,12.42879313,.00226364,82.4884,158.6035,57.1757,303.1499,0,U,39484,999,56823,-.61835378E-3,-.76E-6,0
COSMOS 2490 (RODNIK-S 9),2013-076C,2026-07-05T15:50:54.600288,12.42878866,.00229028,82.4832,156.6303,71.8909,288.4663,0,U,39485,999,56817,.39588864E-3,.65E-6,0
KAZEOSAT 1,2014-024A,2026-07-05T14:48:10.591200,14.42035594,.00013179,98.3196,258.6060,80.7374,279.3965,0,U,39731,999,64121,.14697591E-3,.44E-5,0
COSMOS 2496 (RODNIK-S 10),2014-028A,2026-07-05T14:49:42.017088,12.42879529,.00211861,82.4458,97.1886,40.8947,319.3717,0,U,39761,999,54980,.83358305E-3,.125E-5,0
COSMOS 2497 (RODNIK-S 11),2014-028B,2026-07-05T16:09:40.876992,12.42895448,.00216507,82.4506,98.8507,35.9361,324.3170,0,U,39762,999,54981,.11380408E-2,.168E-5,0
COSMOS 2498 (RODNIK-S 12),2014-028C,2026-07-05T13:39:40.866336,12.42981179,.00223908,82.4466,97.3951,35.7256,324.5317,0,U,39763,999,54983,.11238893E-2,.166E-5,0
HODOYOSHI-4,2014-033B,2026-07-05T15:49:26.954400,14.88172351,.00221732,97.5454,10.5901,243.0017,116.8936,0,U,40011,999,65155,.21033488E-3,.1894E-4,0
UNISAT-6,2014-033C,2026-07-05T08:28:42.548736,14.88338565,.0045008,97.7903,338.7479,10.4150,349.7988,0,U,40012,999,64886,.39361E-3,.3655E-4,0
DEIMOS-2,2014-033D,2026-07-05T14:30:41.646816,14.93783335,.00011102,97.5801,60.4440,85.6235,274.5112,0,U,40013,999,64047,.37337799E-3,.3904E-4,0
BUGSAT-1 (TITA),2014-033E,2026-07-05T14:05:48.958080,15.15818189,.00290203,98.0431,280.2152,117.0166,243.4033,0,U,40014,999,65862,.71398831E-3,.13728E-3,0
SAUDISAT 4,2014-033G,2026-07-05T07:27:53.760960,14.79568835,.0045108,97.7607,331.8210,16.2456,344.0190,0,U,40016,999,64875,.11448E-3,.819E-5,0
APRIZESAT 9,2014-033J,2026-07-05T07:55:03.595872,14.74243582,.0067012,97.9084,319.0872,141.0925,219.5135,0,U,40018,999,64623,.15837E-3,.1033E-4,0
BRITE-CA1 (TORONTO),2014-033L,2026-07-05T07:33:16.293024,14.72710063,.0077744,97.9762,314.9109,218.0903,141.4794,0,U,40020,999,64488,.21142E-3,.136E-4,0
DUCHIFAT-1,2014-033M,2026-07-04T17:12:29.625984,15.68680703,.0000551,98.0425,247.3916,273.4953,86.6243,0,U,40021,999,65849,.18351E-2,.213562E-2,0
